STARLINK-2312           
1 47980C 21024D   24284.15187500 -.00032030  00000+0 -21439-2 0  2841
2 47980  53.0540  46.0815 0001543  86.3084 272.0294 15.06467881    16
STARLINK-2303           
1 47981C 21024E   24284.14840278  .00018574  00000+0  12441-2 0  2847
2 47981  53.0530 130.9734 0001606  82.8027  89.2967 15.06391622    11
STARLINK-2317           
1 47982C 21024F   24284.14284722 -.00019815  00000+0 -13271-2 0  2847
2 47982  53.0536  60.9960 0001459  88.1313 158.7958 15.06433583    19
STARLINK-2308           
1 47985C 21024J   24284.11576389  .00002431  00000+0  16278-3 0  2845
2 47985  53.0535  66.2820 0001416  88.9929 343.3749 15.06413879    15
STARLINK-2305           
1 47989C 21024N   24284.15534722 -.00056609  00000+0 -37895-2 0  2843
2 47989  53.0546  40.9511 0001361  95.3417 269.4143 15.06488121    18
STARLINK-2307           
1 47990C 21024P   24284.15604167 -.00060684  00000+0 -40633-2 0  2848
2 47990  53.0541  40.9385 0001451  90.5139 178.0055 15.06482737    16
STARLINK-2279           
1 47991C 21024Q   24284.13104167 -.00030497  00000+0 -20416-2 0  2848
2 47991  53.0539  56.0589 0001253  90.6516 339.7303 15.06460973    18
STARLINK-2229           
1 47992C 21024R   24284.15534722 -.00031295  00000+0 -20958-2 0  2843
2 47992  53.0539  51.0306 0001320  90.9121 358.7687 15.06447481    16
STARLINK-2273           
1 47993C 21024S   24284.15604167  .00008698  00000+0  58286-3 0  2840
2 47993  53.0531  90.9383 0001313  97.8467 315.7301 15.06383547    15
STARLINK-2290           
1 47994C 21024T   24284.14562500  .00009498  00000+0  63625-3 0  2846
2 47994  53.0528 105.9841 0001400  83.4514 251.0701 15.06396200    15
STARLINK-2309           
1 47995C 21024U   24284.15743056  .00004277  00000+0  28656-3 0  2840
2 47995  53.0535  71.2490 0001398  92.6167 258.2661 15.06390241    14
STARLINK-2260           
1 47996C 21024V   24284.15743056 -.00042374  00000+0 -28396-2 0  2843
2 47996  53.0544 356.2360 0001954  77.5325  45.9296 15.06434194    14
STARLINK-2266           
1 47997C 21024W   24284.12201389  .00013140  00000+0  88070-3 0  2842
2 47997  53.0534 106.0897 0001543  83.2561 223.1750 15.06371579    12
STARLINK-2296           
1 47998C 21024X   24284.14701389  .00008800  00000+0  58974-3 0  2847
2 47998  53.0535  81.2242 0001398  96.6152 302.8081 15.06382059    11
STARLINK-2270           
1 48000C 21024Z   24284.15118056 -.00048663  00000+0 -32574-2 0  2846
2 48000  53.0545  36.1612 0001227  83.4352 266.0763 15.06482267    14
STARLINK-2265           
1 48002C 21024AB  24284.15881944 -.00023106  00000+0 -15473-2 0  2845
2 48002  53.0538  56.2429 0001262  90.4845 150.3795 15.06443237    15
STARLINK-2263           
1 48003C 21024AC  24284.13312500  .00025597  00000+0  17154-2 0  2843
2 48003  53.0517 131.0428 0001557  85.7125  83.4986 15.06365263    19
STARLINK-2271           
1 48008C 21024AH  24284.15951389 -.00043422  00000+0 -29074-2 0  2847
2 48008  53.0536  35.9225 0001500  81.9503 238.0255 15.06466283    19
STARLINK-2153           
1 48009C 21024AJ  24284.15118056  .00009668  00000+0  64733-3 0  2848
2 48009  53.0527 110.9602 0001375  90.9201 226.2584 15.06414110    14
STARLINK-2226           
1 48010C 21024AK  24284.15048611  .00016845  00000+0  11286-2 0  2848
2 48010  53.0521 130.9597 0001412  88.1611 155.2497 15.06385690    15
STARLINK-2243           
1 48013C 21024AN  24284.13729167  .00014476  00000+0  97027-3 0  2847
2 48013  53.0521  96.0218 0001739  84.5317 199.8187 15.06371089    12
STARLINK-2283           
1 48014C 21024AP  24284.14701389 -.00011901  00000+0 -79691-3 0  2844
2 48014  53.0534  61.1409 0001425  91.8159 157.5937 15.06432969    18
STARLINK-2284           
1 48016C 21024AR  24284.15395833  .00050504  00000+0  29795-2 0  2849
2 48016  53.0547  45.8967 0000868  60.1601 201.5474 15.11000528    17
STARLINK-2282           
1 48018C 21024AT  24284.16229167  .00037883  00000+0  22282-2 0  2847
2 48018  53.0541 114.8829 0002827 208.2091 301.1864 15.11118794    17
STARLINK-2285           
1 48019C 21024AU  24284.13173611  .00012854  00000+0  86139-3 0  2840
2 48019  53.0533 106.0469 0001114  78.6328 260.5477 15.06379125    11
STARLINK-2294           
1 48020C 21024AV  24284.16229167 -.00012235  00000+0 -81935-3 0  2847
2 48020  53.0531  61.3058 0001553  86.5176 185.6620 15.06430382    14
STARLINK-2301           
1 48021C 21024AW  24284.09909722  .00018242  00000+0  12223-2 0  2847
2 48021  53.0531  66.1838 0001530  81.2418 145.9509 15.06379876    15
STARLINK-2298           
1 48022C 21024AX  24284.11645833  .00017510  00000+0  11731-2 0  2841
2 48022  53.0520 126.3944 0001424  96.8454  69.2141 15.06383241    16
STARLINK-2292           
1 48023C 21024AY  24284.15812500  .00014697  00000+0  98492-3 0  2846
2 48023  53.0517 125.9295 0001637  87.1936   5.1690 15.06375836    10
STARLINK-2278           
1 48026C 21024BB  24284.10326389  .00967650  00000+0  42504-1 0  2846
2 48026  53.0535 130.6872 0001182 106.8966  52.5705 15.20435534    15
STARLINK-2264           
1 48028C 21024BD  24284.10187500  .00004656  00000+0  31190-3 0  2847
2 48028  53.0537  61.5751 0001079  93.0152 111.3558 15.06397645    10
STARLINK-2299           
1 48029C 21024BE  24284.15465278  .00016545  00000+0  11087-2 0  2846
2 48029  53.0530 125.9439 0001387 104.0074  89.5312 15.06377121    11
STARLINK-2268           
1 48030C 21024BF  24284.10812500  .00018853  00000+0  12644-2 0  2841
2 48030  53.0528 131.1532 0001489  83.7442  69.8769 15.06342260    11
STARLINK-2267           
1 48031C 21024BG  24284.14631944 -.00064123  00000+0 -42959-2 0  2842
2 48031  53.0541  15.9811 0001637  95.0843  58.2557 15.06465857    17
STARLINK-2286           
1 48033C 21024BJ  24284.15534722  .00014461  00000+0  96933-3 0  2841
2 48033  53.0527 125.9420 0001234  97.7046 159.5922 15.06368904    14
STARLINK-2288           
1 48034C 21024BK  24284.09354167  .00017896  00000+0  11989-2 0  2840
2 48034  53.0530 126.2183 0001589  88.5886  93.3383 15.06384005    18
STARLINK-2295           
1 48036C 21024BM  24284.14423611  .00455880  00000+0  28100-1 0  2840
2 48036  53.0517 125.9649 0001151  94.5177 336.0485 15.09006682    18
STARLINK-2048           
1 48092C 21027A   24284.16715278 -.00006145  00000+0 -41191-3 0  2845
2 48092  53.0537 251.1679 0001369  91.2815  62.3949 15.06385099    14
STARLINK-2404           
1 48093C 21027B   24284.14284722 -.00055693  00000+0 -37308-2 0  2845
2 48093  53.0547 316.2007 0001274  84.0856 140.2194 15.06460881    15
STARLINK-2412           
1 48094C 21027C   24284.15604167 -.00061326  00000+0 -41082-2 0  2840
2 48094  53.0544 325.9391 0001354  84.3745 116.6528 15.06466391    15
STARLINK-2414           
1 48095C 21027D   24284.14770833 -.00014758  00000+0 -98909-3 0  2842
2 48095  53.0548 325.9762 0001454  85.4865  30.4076 15.06402400    10
STARLINK-2417           
1 48096C 21027E   24284.15951389 -.00050840  00000+0 -34064-2 0  2844
2 48096  53.0547 325.9247 0001190  94.0450 225.8926 15.06449611    10
STARLINK-2418           
1 48097C 21027F   24284.15604167 -.00011490  00000+0 -77009-3 0  2849
2 48097  53.0549 305.9400 0001132  86.7803 324.2769 15.06399453    15
STARLINK-2421           
1 48098C 21027G   24284.13381944 -.00019549  00000+0 -13101-2 0  2848
2 48098  53.0548 316.0362 0001252  93.5036 321.9872 15.06411040    18
STARLINK-2428           
1 48099C 21027H   24284.15118056 -.00052850  00000+0 -35400-2 0  2841
2 48099  53.0542 325.9587 0001397  87.8563 126.7898 15.06461450    11
STARLINK-2430           
1 48100C 21027J   24284.15048611 -.00015141  00000+0 -10147-2 0  2846
2 48100  53.0546 305.9626 0001617  92.3814 328.5356 15.06404587    14
STARLINK-2436           
1 48101C 21027K   24284.15326389 -.00023244  00000+0 -15574-2 0  2840
2 48101  53.0544 316.1558 0001355  92.3498 328.4685 15.06421624    13
STARLINK-2437           
1 48102C 21027L   24284.13798611 -.00046966  00000+0 -31463-2 0  2841
2 48102  53.0549 306.0196 0001321  89.1630 123.9090 15.06450911    19
STARLINK-2439           
1 48104C 21027N   24284.12618056 -.00035038  00000+0 -23473-2 0  2846
2 48104  53.0545 311.0719 0001205  92.3575 309.1444 15.06438759    16
STARLINK-2440           
1 48105C 21027P   24284.15951389 -.00040891  00000+0 -27406-2 0  2842
2 48105  53.0534 255.9250 0001288  88.7320 276.1747 15.06428553    19
STARLINK-2442           
1 48106C 21027Q   24284.15812500 -.00008958  00000+0 -60042-3 0  2846
2 48106  53.0546 305.9406 0001076  91.7143 350.6372 15.06395733    19
STARLINK-2443           
1 48107C 21027R   24284.16159722 -.00014898  00000+0 -99833-3 0  2848
2 48107  53.0552 305.9118 0001206 103.5097 277.6819 15.06408295    14
STARLINK-2447           
1 48110C 21027U   24284.13590278 -.00045739  00000+0 -30641-2 0  2843
2 48110  53.0548 316.0281 0001351  91.6644 355.0904 15.06450206    18
STARLINK-2448           
1 48111C 21027V   24284.15395833 -.00007935  00000+0 -53173-3 0  2848
2 48111  53.0549 315.9216 0001311  82.6838 142.0870 15.06400328    13
STARLINK-2449           
1 48112C 21027W   24284.14423611 -.00057985  00000+0 -38842-2 0  2849
2 48112  53.0548 331.1554 0001193  89.1173 120.2506 15.06465649    11
STARLINK-2450           
1 48113C 21027X   24284.14493056  .00016245  00000+0  10882-2 0  2846
2 48113  53.0541 325.9865 0001293  96.7417 103.9808 15.06390436    11
STARLINK-2452           
1 48115C 21027Z   24284.15881944 -.00017918  00000+0 -12006-2 0  2846
2 48115  53.0546 315.9362 0000976  86.1914 244.9209 15.06414603    15
STARLINK-2454           
1 48116C 21027AA  24284.14076389 -.00036291  00000+0 -24312-2 0  2843
2 48116  53.0544 326.0101 0001395  87.6909 110.4239 15.06439540    11
STARLINK-2455           
1 48117C 21027AB  24284.15118056 -.00012791  00000+0 -85726-3 0  2849
2 48117  53.0547 305.9503 0001181  93.9049 315.9124 15.06401167    14
STARLINK-2458           
1 48118C 21027AC  24284.14909722  .01294900  00000+0  75936-2 0  2841
2 48118  53.0489 292.6603 0001271  81.6430 168.6443 15.76320115    18
